{
    "links": {
        "self": "http://www.neowsapp.com/rest/v1/neo/3705046?api_key=iIulBulltgU6a56xZRHN4H3l9WmuAYTsLGpBGhQ2"
    },
    "id": "3705046",
    "neo_reference_id": "3705046",
    "name": "(2015 BA311)",
    "designation": "2015 BA311",
    "nasa_jpl_url": "http://ssd.jpl.nasa.gov/sbdb.cgi?sstr=3705046",
    "absolute_magnitude_h": 23.4,
    "estimated_diameter": {
        "kilometers": {
            "estimated_diameter_min": 0.0555334912,
            "estimated_diameter_max": 0.1241766613
        },
        "meters": {
            "estimated_diameter_min": 55.5334911581,
            "estimated_diameter_max": 124.1766612574
        },
        "miles": {
            "estimated_diameter_min": 0.0345069009,
            "estimated_diameter_max": 0.0771597762
        },
        "feet": {
            "estimated_diameter_min": 182.1964991311,
            "estimated_diameter_max": 407.4037573197
        }
    },
    "is_potentially_hazardous_asteroid": false,
    "close_approach_data": [
        {
            "close_approach_date": "2015-01-25",
            "close_approach_date_full": "2015-Jan-25 00:38",
            "epoch_date_close_approach": 1422146280000,
            "relative_velocity": {
                "kilometers_per_second": "6.0516361428",
                "kilometers_per_hour": "21785.8901141325",
                "miles_per_hour": "13536.904887862"
            },
            "miss_distance": {
                "astronomical": "0.255458299",
                "lunar": "99.373278311",
                "kilometers": "38216017.40422313",
                "miles": "23746332.082933994"
            },
            "orbiting_body": "Earth"
        }
    ],
    "orbital_data": {
        "orbit_id": "4",
        "orbit_determination_date": "2019-07-19 05:25:55",
        "first_observation_date": "2015-01-18",
        "last_observation_date": "2015-01-22",
        "data_arc_in_days": 4,
        "observations_used": 13,
        "orbit_uncertainty": "8",
        "minimum_orbit_intersection": ".232481",
        "jupiter_tisserand_invariant": "3.913",
        "epoch_osculation": "2457042.5",
        "eccentricity": ".3428204907354369",
        "semi_major_axis": "1.848795607197723",
        "inclination": "11.12849564012436",
        "ascending_node_longitude": "303.6440498785577",
        "orbital_period": "918.1883491671969",
        "perihelion_distance": "1.21499058986868",
        "perihelion_argument": "171.1576245490048",
        "aphelion_distance": "2.482600624526767",
        "perihelion_time": "2457030.758917496699",
        "mean_anomaly": "4.603401584241499",
        "mean_motion": ".3920764190991124",
        "equinox": "J2000",
        "orbit_class": {
            "orbit_class_type": "AMO",
            "orbit_class_description": "Near-Earth asteroid orbits similar to that of 1221 Amor",
            "orbit_class_range": "1.017 AU < q (perihelion) < 1.3 AU"
        }
    },
    "is_sentry_object": false
}